ORBCOMM-X [-]           
1 21576U 91050C   24056.91281371  .00000548  00000+0  17898-3 0  9997
2 21576  98.4027 125.9008 0003809 170.9032 189.2228 14.42379373713297
ORBCOMM FM01 [-]        
1 23545U 95017A   24056.71314918  .00007652  00000+0  10512-2 0  9992
2 23545  69.9686 173.7564 0007880 307.4724  52.5707 14.78672075541663
ORBCOMM FM02 [-]        
1 23546U 95017B   24056.78877921  .00009014  00000+0  12485-2 0  9993
2 23546  69.9699 192.8575 0009658 305.1221  54.9022 14.78241252541322
ORBCOMM FM08 [-]        
1 25112U 97084A   24056.93417947  .00002533  00000+0  80665-3 0  9990
2 25112  45.0138 132.0593 0006873 342.9975  17.0643 14.42067112372393
ORBCOMM FM10 [-]        
1 25113U 97084B   24056.93693528  .00002473  00000+0  78982-3 0  9994
2 25113  45.0150 133.8473 0005658 309.0980  50.9367 14.41993530547545
ORBCOMM FM11 [+]        
1 25114U 97084C   24056.94956422  .00002454  00000+0  78602-3 0  9999
2 25114  45.0136 133.7973 0006374 311.8391  48.1914 14.41880473372518
ORBCOMM FM12 [-]        
1 25115U 97084D   24056.90764613  .00002278  00000+0  73307-3 0  9996
2 25115  45.0143 133.6693 0005445 309.1131  50.9234 14.41852648372301
ORBCOMM FM09 [-]        
1 25116U 97084E   24056.91723064  .00002277  00000+0  73327-3 0  9994
2 25116  45.0146 134.2891 0006932 300.1077  59.9085 14.41818758372514
